GLOBALSTAR M067         
1 32263U 07048A   25105.03849478 -.00000069  00000+0  21405-3 0  9991
2 32263  51.9721 220.7101 0001234 177.2343   9.0559 12.40670065801898
GLOBALSTAR M070         
1 32264U 07048B   25104.88290672 -.00000064  00000+0  22318-3 0  9999
2 32264  51.9765 321.3554 0000787  74.3618  46.6174 12.62316225805670
GLOBALSTAR M066         
1 32265U 07048C   25105.55135025 -.00000041  00000+0  43864-3 0  9999
2 32265  51.9632 206.8213 0002477 115.9853 268.4144 12.35100327808504
GLOBALSTAR M068         
1 32266U 07048D   25105.56844907 -.00000058  00000+0  25178-3 0  9993
2 32266  51.9860 133.1392 0000866   7.1532 165.1153 12.62821042809939
GLOBALSTAR M079         
1 37188U 10054A   25105.41182690 -.00000076  00000+0  15381-3 0  9995
2 37188  52.0058 330.8853 0000964 103.6213  84.3839 12.62273126669204
GLOBALSTAR M074         
1 37189U 10054B   25104.94482866 -.00000073  00000+0  16896-3 0  9990
2 37189  52.0037 331.6408 0000627  91.2815  12.1693 12.62273969669070
GLOBALSTAR M076         
1 37190U 10054C   25105.58527448 -.00000069  00000+0  19368-3 0  9991
2 37190  52.0047 329.8530 0000715 111.4995 265.9767 12.62260995669233
GLOBALSTAR M077         
1 37191U 10054D   25104.88847579 -.00000100  00000+0  19310-4 0  9998
2 37191  52.0071 288.8147 0000816 103.5793  44.4386 12.62273267669153
